{"type": "FeatureCollection", "features": [ {"type": "Feature", "properties": {"norad_id": 38728, "name": "FENGYUN 1C DEB", "group": "fengyun-1c-debris", "lat": -52.24024204365984, "lon": 137.65993318690414, "alt_km": 718.2482613782231, "timestamp": "2025-12-08T23:34:04.259655+00:00", "meta": {"OBJECT_NAME": "FENGYUN 1C DEB", "OBJECT_ID": "1999-025ETV", "EPOCH": "2025-12-06T05:29:30.081696", "MEAN_MOTION": 14.70418681, "ECCENTRICITY": 0.0075523, "INCLINATION": 99.2588, "RA_OF_ASC_NODE": 326.6948, "ARG_OF_PERICENTER": 74.331, "MEAN_ANOMALY": 352.8104, "EPHEMERIS_TYPE": 0, "CLASSIFICATION_TYPE": "U", "NORAD_CAT_ID": 38728, "ELEMENT_SET_NO": 999, "REV_AT_EPOCH": 65515, "BSTAR": 0.0019460135, "MEAN_MOTION_DOT": 0.00012268, "MEAN_MOTION_DDOT": 0}, "tle": {"line1": "1 38728U 99025ETV 25340.22882039  .00012268  00000+0  19460-2 0  9991", "line2": "2 38728  99.2588 326.6948 0075523  74.3310 352.8104 14.70418681655154"}}, "geometry": {"type": "Point", "coordinates": [137.65993318690414, -52.24024204365984]}}, {"type": "Feature", "properties": {"norad_id": 38789, "name": "FENGYUN 1C DEB", "group": "fengyun-1c-debris", "lat": 26.43801427801767, "lon": 53.33666502546748, "alt_km": 802.4419360563033, "timestamp": "2025-12-08T23:34:04.259666+00:00", "meta": {"OBJECT_NAME": "FENGYUN 1C DEB", "OBJECT_ID": "1999-025EUD", "EPOCH": "2025-12-06T22:47:22.321824", "MEAN_MOTION": 14.45753733, "ECCENTRICITY": 0.02081012, "INCLINATION": 98.8563, "RA_OF_ASC_NODE": 226.768, "ARG_OF_PERICENTER": 42.5488, "MEAN_ANOMALY": 336.2206, "EPHEMERIS_TYPE": 0, "CLASSIFICATION_TYPE": "U", "NORAD_CAT_ID": 38789, "ELEMENT_SET_NO": 999, "REV_AT_EPOCH": 61762, "BSTAR": 0.0010174555, "MEAN_MOTION_DOT": 4.662e-05, "MEAN_MOTION_DDOT": 0}, "tle": {"line1": "1 38789U 99025EUD 25340.94956391  .00004662  00000+0  10175-2 0  9993", "line2": "2 38789  98.8563 226.7680 0208101  42.5488 336.2206 14.45753733617626"}}, "geometry": {"type": "Point", "coordinates": [53.33666502546748, 26.43801427801767]}}, {"type": "Feature", "properties": {"norad_id": 38795, "name": "FENGYUN 1C DEB", "group": "fengyun-1c-debris", "lat": 48.45411179480411, "lon": -3.4485096264496153, "alt_km": 1442.983696856878, "timestamp": "2025-12-08T23:34:04.259676+00:00", "meta": {"OBJECT_NAME": "FENGYUN 1C DEB", "OBJECT_ID": "1999-025EUK", "EPOCH": "2025-12-07T07:35:09.165120", "MEAN_MOTION": 13.29855961, "ECCENTRICITY": 0.0503622, "INCLINATION": 98.6999, "RA_OF_ASC_NODE": 5.0885, "ARG_OF_PERICENTER": 269.3157, "MEAN_ANOMALY": 85.0264, "EPHEMERIS_TYPE": 0, "CLASSIFICATION_TYPE": "U", "NORAD_CAT_ID": 38795, "ELEMENT_SET_NO": 999, "REV_AT_EPOCH": 78440, "BSTAR": 0.0052437128, "MEAN_MOTION_DOT": 4.895e-05, "MEAN_MOTION_DDOT": 0}, "tle": {"line1": "1 38795U 99025EUK 25341.31607830  .00004895  00000+0  52437-2 0  9998", "line2": "2 38795  98.6999   5.0885 0503622 269.3157  85.0264 13.29855961784408"}}, "geometry": {"type": "Point", "coordinates": [-3.4485096264496153, 48.45411179480411]}}, {"type": "Feature", "properties": {"norad_id": 38797, "name": "FENGYUN 1C DEB", "group": "fengyun-1c-debris", "lat": 30.492432665443236, "lon": 61.586892928718775, "alt_km": 998.5508516439513, "timestamp": "2025-12-08T23:34:04.259686+00:00", "meta": {"OBJECT_NAME": "FENGYUN 1C DEB", "OBJECT_ID": "1999-025EUM", "EPOCH": "2025-12-08T10:28:09.847776", "MEAN_MOTION": 13.61607637, "ECCENTRICITY": 0.0245005, "INCLINATION": 99.4848, "RA_OF_ASC_NODE": 235.4069, "ARG_OF_PERICENTER": 232.356, "MEAN_ANOMALY": 125.5125, "EPHEMERIS_TYPE": 0, "CLASSIFICATION_TYPE": "U", "NORAD_CAT_ID": 38797, "ELEMENT_SET_NO": 999, "REV_AT_EPOCH": 59224, "BSTAR": 0.000515849, "MEAN_MOTION_DOT": 4.38e-06, "MEAN_MOTION_DDOT": 0}, "tle": {"line1": "1 38797U 99025EUM 25342.43622509  .00000438  00000+0  51585-3 0  9997", "line2": "2 38797  99.4848 235.4069 0245005 232.3560 125.5125 13.61607637592247"}}, "geometry": {"type": "Point", "coordinates": [61.586892928718775, 30.492432665443236]}}, {"type": "Feature", "properties": {"norad_id": 38799, "name": "FENGYUN 1C DEB", "group": "fengyun-1c-debris", "lat": 64.60944608053944, "lon": 40.30017582889746, "alt_km": 671.1046126528863, "timestamp": "2025-12-08T23:34:04.259696+00:00", "meta": {"OBJECT_NAME": "FENGYUN 1C DEB", "OBJECT_ID": "1999-025EUP", "EPOCH": "2025-12-07T22:24:30.590496", "MEAN_MOTION": 14.4868874, "ECCENTRICITY": 0.01640713, "INCLINATION": 98.4063, "RA_OF_ASC_NODE": 57.4094, "ARG_OF_PERICENTER": 5.0879, "MEAN_ANOMALY": 355.1934, "EPHEMERIS_TYPE": 0, "CLASSIFICATION_TYPE": "U", "NORAD_CAT_ID": 38799, "ELEMENT_SET_NO": 999, "REV_AT_EPOCH": 63969, "BSTAR": 0.00109493, "MEAN_MOTION_DOT": 4.844e-05, "MEAN_MOTION_DDOT": 0}, "tle": {"line1": "1 38799U 99025EUP 25341.93368739  .00004844  00000+0  10949-2 0  9998", "line2": "2 38799  98.4063  57.4094 0164071   5.0879 355.1934 14.48688740639698"}}, "geometry": {"type": "Point", "coordinates": [40.30017582889746, 64.60944608053944]}}, {"type": "Feature", "properties": {"norad_id": 38801, "name": "FENGYUN 1C DEB", "group": "fengyun-1c-debris", "lat": -59.016596655712334, "lon": 47.96785014599197, "alt_km": 696.3564415217033, "timestamp": "2025-12-08T23:34:04.259707+00:00", "meta": {"OBJECT_NAME": "FENGYUN 1C DEB", "OBJECT_ID": "1999-025EUR", "EPOCH": "2025-12-07T23:06:30.054240", "MEAN_MOTION": 14.24780095, "ECCENTRICITY": 0.03473584, "INCLINATION": 98.3739, "RA_OF_ASC_NODE": 32.7937, "ARG_OF_PERICENTER": 6.044, "MEAN_ANOMALY": 113.0364, "EPHEMERIS_TYPE": 0, "CLASSIFICATION_TYPE": "U", "NORAD_CAT_ID": 38801, "ELEMENT_SET_NO": 999, "REV_AT_EPOCH": 64292, "BSTAR": 0.00069576867, "MEAN_MOTION_DOT": 3.001e-05, "MEAN_MOTION_DDOT": 0}, "tle": {"line1": "1 38801U 99025EUR 25341.96284785  .00003001  00000+0  69577-3 0  9999", "line2": "2 38801  98.3739  32.7937 0347358   6.0440 113.0364 14.24780095642927"}}, "geometry": {"type": "Point", "coordinates": [47.96785014599197, -59.016596655712334]}}, {"type": "Feature", "properties": {"norad_id": 38803, "name": "FENGYUN 1C DEB", "group": "fengyun-1c-debris", "lat": -8.219523178447918, "lon": 165.34749204409212, "alt_km": 853.2442404743488, "timestamp": "2025-12-08T23:34:04.259717+00:00", "meta": {"OBJECT_NAME": "FENGYUN 1C DEB", "OBJECT_ID": "1999-025EUT", "EPOCH": "2025-12-02T23:18:31.375872", "MEAN_MOTION": 14.23518858, "ECCENTRICITY": 0.00644877, "INCLINATION": 99.1384, "RA_OF_ASC_NODE": 340.4394, "ARG_OF_PERICENTER": 63.9975, "MEAN_ANOMALY": 296.7825, "EPHEMERIS_TYPE": 0, "CLASSIFICATION_TYPE": "U", "NORAD_CAT_ID": 38803, "ELEMENT_SET_NO": 999, "REV_AT_EPOCH": 60073, "BSTAR": 0.0027014694, "MEAN_MOTION_DOT": 6.236e-05, "MEAN_MOTION_DDOT": 0}, "tle": {"line1": "1 38803U 99025EUT 25336.97119648  .00006236  00000+0  27015-2 0  9994", "line2": "2 38803  99.1384 340.4394 0064487  63.9975 296.7825 14.23518858600733"}}, "geometry": {"type": "Point", "coordinates": [165.34749204409212, -8.219523178447918]}}, {"type": "Feature", "properties": {"norad_id": 38809, "name": "FENGYUN 1C DEB", "group": "fengyun-1c-debris", "lat": -31.928919047641394, "lon": 167.8658572689751, "alt_km": 931.3370251530032, "timestamp": "2025-12-08T23:34:04.259728+00:00", "meta": {"OBJECT_NAME": "FENGYUN 1C DEB", "OBJECT_ID": "1999-025EUZ", "EPOCH": "2025-12-05T06:30:23.152320", "MEAN_MOTION": 14.18136991, "ECCENTRICITY": 0.02231713, "INCLINATION": 98.5894, "RA_OF_ASC_NODE": 349.676, "ARG_OF_PERICENTER": 349.5929, "MEAN_ANOMALY": 10.0666, "EPHEMERIS_TYPE": 0, "CLASSIFICATION_TYPE": "U", "NORAD_CAT_ID": 38809, "ELEMENT_SET_NO": 999, "REV_AT_EPOCH": 69100, "BSTAR": 0.0011831883, "MEAN_MOTION_DOT": 3.063e-05, "MEAN_MOTION_DDOT": 0}, "tle": {"line1": "1 38809U 99025EUZ 25339.27110130  .00003063  00000+0  11832-2 0  9998", "line2": "2 38809  98.5894 349.6760 0223171 349.5929  10.0666 14.18136991691003"}}, "geometry": {"type": "Point", "coordinates": [167.8658572689751, -31.928919047641394]}}, {"type": "Feature", "properties": {"norad_id": 38813, "name": "FENGYUN 1C DEB", "group": "fengyun-1c-debris", "lat": -68.12167549703173, "lon": 4.149500413332954, "alt_km": 836.5339922391022, "timestamp": "2025-12-08T23:34:04.259738+00:00", "meta": {"OBJECT_NAME": "FENGYUN 1C DEB", "OBJECT_ID": "1999-025EVD", "EPOCH": "2025-12-07T17:27:42.558624", "MEAN_MOTION": 14.20147908, "ECCENTRICITY": 0.00064003, "INCLINATION": 99.3461, "RA_OF_ASC_NODE": 338.6129, "ARG_OF_PERICENTER": 126.7524, "MEAN_ANOMALY": 233.4239, "EPHEMERIS_TYPE": 0, "CLASSIFICATION_TYPE": "U", "NORAD_CAT_ID": 38813, "ELEMENT_SET_NO": 999, "REV_AT_EPOCH": 48179, "BSTAR": 0.00089830525, "MEAN_MOTION_DOT": 1.868e-05, "MEAN_MOTION_DDOT": 0}, "tle": {"line1": "1 38813U 99025EVD 25341.72757591  .00001868  00000+0  89831-3 0  9990", "line2": "2 38813  99.3461 338.6129 0006400 126.7524 233.4239 14.20147908481797"}}, "geometry": {"type": "Point", "coordinates": [4.149500413332954, -68.12167549703173]}}, {"type": "Feature", "properties": {"norad_id": 38817, "name": "FENGYUN 1C DEB", "group": "fengyun-1c-debris", "lat": 47.77128205789466, "lon": -155.80572563243376, "alt_km": 824.7352852095937, "timestamp": "2025-12-08T23:34:04.259748+00:00", "meta": {"OBJECT_NAME": "FENGYUN 1C DEB", "OBJECT_ID": "1999-025EVH", "EPOCH": "2025-12-07T10:11:58.930368", "MEAN_MOTION": 13.57663277, "ECCENTRICITY": 0.02910504, "INCLINATION": 98.5999, "RA_OF_ASC_NODE": 212.4265, "ARG_OF_PERICENTER": 58.1796, "MEAN_ANOMALY": 304.7335, "EPHEMERIS_TYPE": 0, "CLASSIFICATION_TYPE": "U", "NORAD_CAT_ID": 38817, "ELEMENT_SET_NO": 999, "REV_AT_EPOCH": 65762, "BSTAR": 0.0029018889, "MEAN_MOTION_DOT": 2.713e-05, "MEAN_MOTION_DDOT": 0}, "tle": {"line1": "1 38817U 99025EVH 25341.42498762  .00002713  00000+0  29019-2 0  9994", "line2": "2 38817  98.5999 212.4265 0291050  58.1796 304.7335 13.57663277657621"}}, "geometry": {"type": "Point", "coordinates": [-155.80572563243376, 47.77128205789466]}}]}